[{"OBJECT_NAME":"SITRO-AIS 8 (ANOKHIN)","OBJECT_ID":"2023-091AD","EPOCH":"2026-03-09T23:44:40.058592","MEAN_MOTION":15.29359179,"ECCENTRICITY":0.0012509,"INCLINATION":97.5169,"RA_OF_ASC_NODE":133.2823,"ARG_OF_PERICENTER":92.0171,"MEAN_ANOMALY":268.2501,"EPHEMERIS_TYPE":0,"CLASSIFICATION_TYPE":"U","NORAD_CAT_ID":57193,"ELEMENT_SET_NO":999,"REV_AT_EPOCH":14927,"BSTAR":0.00064982524,"MEAN_MOTION_DOT":0.00018494,"MEAN_MOTION_DDOT":0},{"OBJECT_NAME":"STARLINK-31476","OBJECT_ID":"2024-073N","EPOCH":"2026-03-09T00:49:04.018656","MEAN_MOTION":15.27579294,"ECCENTRICITY":0.0001693,"INCLINATION":43.0016,"RA_OF_ASC_NODE":321.8672,"ARG_OF_PERICENTER":264.7192,"MEAN_ANOMALY":95.3466,"EPHEMERIS_TYPE":0,"CLASSIFICATION_TYPE":"U","NORAD_CAT_ID":59523,"ELEMENT_SET_NO":999,"REV_AT_EPOCH":10607,"BSTAR":-6.9917098e-5,"MEAN_MOTION_DOT":-2.186e-5,"MEAN_MOTION_DDOT":0}]
